{
  "type": "FeatureCollection",
  "features": [
    {
      "type": "Feature",
      "properties": {
        "norad_id": 34540,
        "name": "IRIDIUM 33 DEB",
        "group": "iridium-33-debris",
        "lat": 19.7489004201147,
        "lon": 125.84038013137528,
        "alt_km": 632.750709145299,
        "timestamp": "2025-12-13T16:48:33.094706+00:00",
        "meta_object_name": "IRIDIUM 33 DEB",
        "meta_object_id": "1997-051JH",
        "meta_epoch": "2025-12-12T16:27:37.491840",
        "meta_mean_motion": 14.75322014,
        "meta_eccentricity": 0.00164195,
        "meta_inclination": 86.3102,
        "meta_ra_of_asc_node": 307.6317,
        "meta_arg_of_pericenter": 159.2955,
        "meta_mean_anomaly": 15.9185,
        "meta_ephemeris_type": 0,
        "meta_classification_type": "U",
        "meta_norad_cat_id": 34540,
        "meta_element_set_no": 999,
        "meta_rev_at_epoch": 89020,
        "meta_bstar": 0.0023425707,
        "meta_mean_motion_dot": 0.0001595,
        "meta_mean_motion_ddot": 0,
        "tle_line1": "1 34540U 97051JH  25346.68585060  .00015950  00000+0  23426-2 0  9994",
        "tle_line2": "2 34540  86.3102 307.6317 0016419 159.2955  15.9185 14.75322014890209"
      },
      "geometry": {
        "type": "Point",
        "coordinates": [
          125.84038013137528,
          19.7489004201147
        ]
      }
    },
    {
      "type": "Feature",
      "properties": {
        "norad_id": 34648,
        "name": "IRIDIUM 33 DEB",
        "group": "iridium-33-debris",
        "lat": 85.61251901817788,
        "lon": -23.080399707490535,
        "alt_km": 962.3443580353924,
        "timestamp": "2025-12-13T16:48:33.094716+00:00",
        "meta_object_name": "IRIDIUM 33 DEB",
        "meta_object_id": "1997-051JZ",
        "meta_epoch": "2025-12-12T06:21:55.340640",
        "meta_mean_motion": 14.11481969,
        "meta_eccentricity": 0.01828059,
        "meta_inclination": 86.3902,
        "meta_ra_of_asc_node": 282.138,
        "meta_arg_of_pericenter": 300.3991,
        "meta_mean_anomaly": 57.9233,
        "meta_ephemeris_type": 0,
        "meta_classification_type": "U",
        "meta_norad_cat_id": 34648,
        "meta_element_set_no": 999,
        "meta_rev_at_epoch": 84954,
        "meta_bstar": 0.010984589,
        "meta_mean_motion_dot": 0.00023366,
        "meta_mean_motion_ddot": 0,
        "tle_line1": "1 34648U 97051JZ  25346.26522385  .00023366  00000+0  10985-1 0  9993",
        "tle_line2": "2 34648  86.3902 282.1380 0182805 300.3991  57.9233 14.11481969849541"
      },
      "geometry": {
        "type": "Point",
        "coordinates": [
          -23.080399707490535,
          85.61251901817788
        ]
      }
    },
    {
      "type": "Feature",
      "properties": {
        "norad_id": 34651,
        "name": "IRIDIUM 33 DEB",
        "group": "iridium-33-debris",
        "lat": -13.493515350702966,
        "lon": -38.93748077101815,
        "alt_km": 709.0420563541284,
        "timestamp": "2025-12-13T16:48:33.094727+00:00",
        "meta_object_name": "IRIDIUM 33 DEB",
        "meta_object_id": "1997-051KC",
        "meta_epoch": "2025-12-12T09:35:00.604320",
        "meta_mean_motion": 14.25811069,
        "meta_eccentricity": 0.01420847,
        "meta_inclination": 86.2833,
        "meta_ra_of_asc_node": 140.7223,
        "meta_arg_of_pericenter": 205.011,
        "meta_mean_anomaly": 154.4154,
        "meta_ephemeris_type": 0,
        "meta_classification_type": "U",
        "meta_norad_cat_id": 34651,
        "meta_element_set_no": 999,
        "meta_rev_at_epoch": 85891,
        "meta_bstar": 0.0048807652,
        "meta_mean_motion_dot": 0.00012929,
        "meta_mean_motion_ddot": 0,
        "tle_line1": "1 34651U 97051KC  25346.39931255  .00012929  00000+0  48808-2 0  9990",
        "tle_line2": "2 34651  86.2833 140.7223 0142084 205.0110 154.4154 14.25811069858910"
      },
      "geometry": {
        "type": "Point",
        "coordinates": [
          -38.93748077101815,
          -13.493515350702966
        ]
      }
    },
    {
      "type": "Feature",
      "properties": {
        "norad_id": 34652,
        "name": "IRIDIUM 33 DEB",
        "group": "iridium-33-debris",
        "lat": 9.978673644891789,
        "lon": -19.779028062654927,
        "alt_km": 683.3885696058733,
        "timestamp": "2025-12-13T16:48:33.094737+00:00",
        "meta_object_name": "IRIDIUM 33 DEB",
        "meta_object_id": "1997-051KD",
        "meta_epoch": "2025-12-11T23:57:08.973792",
        "meta_mean_motion": 14.62047586,
        "meta_eccentricity": 0.0025954,
        "meta_inclination": 86.3316,
        "meta_ra_of_asc_node": 340.3318,
        "meta_arg_of_pericenter": 300.945,
        "meta_mean_anomaly": 114.4446,
        "meta_ephemeris_type": 0,
        "meta_classification_type": "U",
        "meta_norad_cat_id": 34652,
        "meta_element_set_no": 999,
        "meta_rev_at_epoch": 88473,
        "meta_bstar": 0.0015132,
        "meta_mean_motion_dot": 7.652e-05,
        "meta_mean_motion_ddot": 0,
        "tle_line1": "1 34652U 97051KD  25345.99802053  .00007652  00000+0  15132-2 0  9990",
        "tle_line2": "2 34652  86.3316 340.3318 0025954 300.9450 114.4446 14.62047586884734"
      },
      "geometry": {
        "type": "Point",
        "coordinates": [
          -19.779028062654927,
          9.978673644891789
        ]
      }
    },
    {
      "type": "Feature",
      "properties": {
        "norad_id": 34690,
        "name": "IRIDIUM 33 DEB",
        "group": "iridium-33-debris",
        "lat": -28.678551361043763,
        "lon": -141.44091354653995,
        "alt_km": 722.6762616374072,
        "timestamp": "2025-12-13T16:48:33.094747+00:00",
        "meta_object_name": "IRIDIUM 33 DEB",
        "meta_object_id": "1997-051KM",
        "meta_epoch": "2025-12-12T21:56:50.444736",
        "meta_mean_motion": 14.55097314,
        "meta_eccentricity": 0.00108506,
        "meta_inclination": 86.3784,
        "meta_ra_of_asc_node": 36.9152,
        "meta_arg_of_pericenter": 29.0413,
        "meta_mean_anomaly": 25.3657,
        "meta_ephemeris_type": 0,
        "meta_classification_type": "U",
        "meta_norad_cat_id": 34690,
        "meta_element_set_no": 999,
        "meta_rev_at_epoch": 88097,
        "meta_bstar": 0.0006877799,
        "meta_mean_motion_dot": 2.989e-05,
        "meta_mean_motion_ddot": 0,
        "tle_line1": "1 34690U 97051KM  25346.91447274  .00002989  00000+0  68778-3 0  9998",
        "tle_line2": "2 34690  86.3784  36.9152 0010850  29.0413  25.3657 14.55097314880978"
      },
      "geometry": {
        "type": "Point",
        "coordinates": [
          -141.44091354653995,
          -28.678551361043763
        ]
      }
    },
    {
      "type": "Feature",
      "properties": {
        "norad_id": 34693,
        "name": "IRIDIUM 33 DEB",
        "group": "iridium-33-debris",
        "lat": 30.885600890684543,
        "lon": 121.13334986992201,
        "alt_km": 481.02961995594706,
        "timestamp": "2025-12-13T16:48:33.094758+00:00",
        "meta_object_name": "IRIDIUM 33 DEB",
        "meta_object_id": "1997-051KQ",
        "meta_epoch": "2025-12-12T21:33:47.712960",
        "meta_mean_motion": 15.27980869,
        "meta_eccentricity": 0.00139664,
        "meta_inclination": 86.3056,
        "meta_ra_of_asc_node": 303.7467,
        "meta_arg_of_pericenter": 52.9772,
        "meta_mean_anomaly": 7.323,
        "meta_ephemeris_type": 0,
        "meta_classification_type": "U",
        "meta_norad_cat_id": 34693,
        "meta_element_set_no": 999,
        "meta_rev_at_epoch": 88917,
        "meta_bstar": 0.0063067576,
        "meta_mean_motion_dot": 0.00176337,
        "meta_mean_motion_ddot": 0,
        "tle_line1": "1 34693U 97051KQ  25346.89846890  .00176337  00000+0  63068-2 0  9990",
        "tle_line2": "2 34693  86.3056 303.7467 0013966  52.9772   7.3230 15.27980869889175"
      },
      "geometry": {
        "type": "Point",
        "coordinates": [
          121.13334986992201,
          30.885600890684543
        ]
      }
    },
    {
      "type": "Feature",
      "properties": {
        "norad_id": 34696,
        "name": "IRIDIUM 33 DEB",
        "group": "iridium-33-debris",
        "lat": 20.950735438356215,
        "lon": 28.539540104840203,
        "alt_km": 718.1407197813905,
        "timestamp": "2025-12-13T16:48:33.094768+00:00",
        "meta_object_name": "IRIDIUM 33 DEB",
        "meta_object_id": "1997-051KT",
        "meta_epoch": "2025-12-11T02:33:26.982720",
        "meta_mean_motion": 14.64953116,
        "meta_eccentricity": 0.00741481,
        "meta_inclination": 86.185,
        "meta_ra_of_asc_node": 28.2818,
        "meta_arg_of_pericenter": 173.0229,
        "meta_mean_anomaly": 217.0787,
        "meta_ephemeris_type": 0,
        "meta_classification_type": "U",
        "meta_norad_cat_id": 34696,
        "meta_element_set_no": 999,
        "meta_rev_at_epoch": 86649,
        "meta_bstar": 0.0075396538,
        "meta_mean_motion_dot": 0.00042238,
        "meta_mean_motion_ddot": 0,
        "tle_line1": "1 34696U 97051KT  25345.10656230  .00042238  00000+0  75397-2 0  9993",
        "tle_line2": "2 34696  86.1850  28.2818 0074148 173.0229 217.0787 14.64953116866490"
      },
      "geometry": {
        "type": "Point",
        "coordinates": [
          28.539540104840203,
          20.950735438356215
        ]
      }
    }
  ]
}